*******************************************************************************
Ephemeris / WWW_USER Mon Mar 24 07:58:26 2025 Pasadena, USA      / Horizons    
*******************************************************************************
Target body name: (2018 TZ5)                      {source: JPL#13}
Center body name: Earth (399)                     {source: DE441}
Center-site name: Mauna Kea
*******************************************************************************
Start time      : A.D. 2018-Oct-27 04:00:00.0000 UT      
Stop  time      : A.D. 2018-Oct-27 16:11:00.0000 UT      
Step-size       : 1 minutes
*******************************************************************************
Target pole/equ : undefined
Target radii    : undefined                                                    
Center geodetic : 204.5278, 19.8260847, 4.21024   {E-lon(deg),Lat(deg),Alt(km)}
Center cylindric: 204.5278, 6006.35451, 2151.0229 {E-lon(deg),Dxy(km),Dz(km)}
Center pole/equ : ITRF93                          {East-longitude positive}
Center radii    : 6378.137, 6378.137, 6356.752 km {Equator_a, b, pole_c}       
Target primary  : Sun
Vis. interferer : MOON (R_eq= 1737.400) km        {source: DE441}
Rel. light bend : Sun                             {source: DE441}
Rel. lght bnd GM: 1.3271E+11 km^3/s^2                                          
Small-body perts: Yes                             {source: SB441-N16}
Atmos refraction: NO (AIRLESS)
RA format       : HMS
Time format     : CAL 
Calendar mode   : Mixed Julian/Gregorian
RTS-only print  : NO       
EOP file        : eop.250321.p250617                                           
EOP coverage    : DATA-BASED 1962-JAN-20 TO 2025-MAR-21. PREDICTS-> 2025-JUN-16
Units conversion: 1 au= 149597870.700 km, c= 299792.458 km/s, 1 day= 86400.0 s 
Table cut-offs 1: Elevation (-90.0deg=NO ),Airmass (>38.000=NO), Daylight (YES)
Table cut-offs 2: Solar elongation (  0.0,180.0=NO ),Local Hour Angle( 0.0=NO )
Table cut-offs 3: RA/DEC angular rate (     0.0=NO )                           
*******************************************************************************
Initial IAU76/J2000 heliocentric ecliptic osculating elements (au, days, deg.):
  EPOCH=  2458421.5 ! 2018-Oct-30.00 (TDB)         Residual RMS= .3052         
   EC= .5505022016549632   QR= .8932716909804733   TP= 2458367.6074299323      
   OM= 132.9772150011661   W=  197.0626448515302   IN= 1.165364587967566       
  Equivalent ICRF heliocentric cartesian coordinates (au, au/d):
   X= 9.139681807821705E-01  Y= 6.232256283970929E-01  Z= 2.452583568287751E-01
  VX=-4.619682259947144E-03 VY= 1.729028462648113E-02 VZ= 7.287606215643615E-03
Asteroid physical parameters (km, seconds, rotational period in hours):        
   GM= n.a.                RAD= n.a.               ROTPER= n.a.                
   H= 24.4                 G= .150                 B-V= n.a.                   
                           ALBEDO= n.a.            STYP= n.a.                  
*******************************************************************************
 Date__(UT)__HR:MN     R.A._________(ICRF)_________DEC
******************************************************
$$SOE
 2018-Oct-27 06:03  m  02 25 46.617779 +03 12 50.35103
 2018-Oct-27 06:04  m  02 25 46.631098 +03 12 51.94489
 2018-Oct-27 06:05  m  02 25 46.644337 +03 12 53.53860
 2018-Oct-27 06:06  m  02 25 46.657495 +03 12 55.13215
 2018-Oct-27 06:07  m  02 25 46.670571 +03 12 56.72555
 2018-Oct-27 06:08  m  02 25 46.683568 +03 12 58.31881
 2018-Oct-27 06:09  m  02 25 46.696483 +03 12 59.91191
 2018-Oct-27 06:10  m  02 25 46.709319 +03 13 01.50485
 2018-Oct-27 06:11  m  02 25 46.722074 +03 13 03.09765
 2018-Oct-27 06:12  m  02 25 46.734749 +03 13 04.69029
 2018-Oct-27 06:13  m  02 25 46.747345 +03 13 06.28277
 2018-Oct-27 06:14  m  02 25 46.759861 +03 13 07.87511
 2018-Oct-27 06:15  m  02 25 46.772298 +03 13 09.46728
 2018-Oct-27 06:16  m  02 25 46.784655 +03 13 11.05931
 2018-Oct-27 06:17  m  02 25 46.796933 +03 13 12.65118
 2018-Oct-27 06:18  m  02 25 46.809133 +03 13 14.24289
 2018-Oct-27 06:19  m  02 25 46.821254 +03 13 15.83445
 2018-Oct-27 06:20  m  02 25 46.833296 +03 13 17.42585
 2018-Oct-27 06:21  m  02 25 46.845260 +03 13 19.01710
 2018-Oct-27 06:22  m  02 25 46.857146 +03 13 20.60819
 2018-Oct-27 06:23  m  02 25 46.868955 +03 13 22.19913
 2018-Oct-27 06:24  m  02 25 46.880685 +03 13 23.78991
 2018-Oct-27 06:25  m  02 25 46.892338 +03 13 25.38053
 2018-Oct-27 06:26  m  02 25 46.903914 +03 13 26.97099
 2018-Oct-27 06:27  m  02 25 46.915412 +03 13 28.56130
 2018-Oct-27 06:28  m  02 25 46.926834 +03 13 30.15145
 2018-Oct-27 06:29  m  02 25 46.938179 +03 13 31.74144
 2018-Oct-27 06:30  m  02 25 46.949447 +03 13 33.33127
 2018-Oct-27 06:31  m  02 25 46.960639 +03 13 34.92094
 2018-Oct-27 06:32  m  02 25 46.971755 +03 13 36.51046
 2018-Oct-27 06:33  m  02 25 46.982795 +03 13 38.09981
 2018-Oct-27 06:34  m  02 25 46.993760 +03 13 39.68901
 2018-Oct-27 06:35  m  02 25 47.004649 +03 13 41.27804
 2018-Oct-27 06:36  m  02 25 47.015462 +03 13 42.86692
 2018-Oct-27 06:37  m  02 25 47.026201 +03 13 44.45563
 2018-Oct-27 06:38  m  02 25 47.036865 +03 13 46.04419
 2018-Oct-27 06:39  m  02 25 47.047454 +03 13 47.63258
 2018-Oct-27 06:40  m  02 25 47.057969 +03 13 49.22082
 2018-Oct-27 06:41  m  02 25 47.068410 +03 13 50.80889
 2018-Oct-27 06:42  m  02 25 47.078777 +03 13 52.39680
 2018-Oct-27 06:43  m  02 25 47.089070 +03 13 53.98454
 2018-Oct-27 06:44  m  02 25 47.099289 +03 13 55.57213
 2018-Oct-27 06:45  m  02 25 47.109436 +03 13 57.15955
 2018-Oct-27 06:46  m  02 25 47.119509 +03 13 58.74681
 2018-Oct-27 06:47  m  02 25 47.129509 +03 14 00.33391
 2018-Oct-27 06:48  m  02 25 47.139437 +03 14 01.92084
 2018-Oct-27 06:49  m  02 25 47.149292 +03 14 03.50762
 2018-Oct-27 06:50  m  02 25 47.159076 +03 14 05.09422
 2018-Oct-27 06:51  m  02 25 47.168787 +03 14 06.68066
 2018-Oct-27 06:52  m  02 25 47.178427 +03 14 08.26694
 2018-Oct-27 06:53  m  02 25 47.187995 +03 14 09.85306
 2018-Oct-27 06:54  m  02 25 47.197492 +03 14 11.43900
 2018-Oct-27 06:55  m  02 25 47.206918 +03 14 13.02479
 2018-Oct-27 06:56  m  02 25 47.216273 +03 14 14.61041
 2018-Oct-27 06:57  m  02 25 47.225558 +03 14 16.19586
 2018-Oct-27 06:58  m  02 25 47.234772 +03 14 17.78115
 2018-Oct-27 06:59  m  02 25 47.243917 +03 14 19.36627
 2018-Oct-27 07:00  m  02 25 47.252992 +03 14 20.95122
 2018-Oct-27 07:01  m  02 25 47.261997 +03 14 22.53601
 2018-Oct-27 07:02  m  02 25 47.270933 +03 14 24.12063
 2018-Oct-27 07:03  m  02 25 47.279800 +03 14 25.70508
 2018-Oct-27 07:04  m  02 25 47.288598 +03 14 27.28937
 2018-Oct-27 07:05  m  02 25 47.297328 +03 14 28.87349
 2018-Oct-27 07:06  m  02 25 47.305989 +03 14 30.45744
 2018-Oct-27 07:07  m  02 25 47.314582 +03 14 32.04122
 2018-Oct-27 07:08  m  02 25 47.323108 +03 14 33.62483
 2018-Oct-27 07:09  m  02 25 47.331566 +03 14 35.20828
 2018-Oct-27 07:10  m  02 25 47.339957 +03 14 36.79155
 2018-Oct-27 07:11  m  02 25 47.348281 +03 14 38.37466
 2018-Oct-27 07:12  m  02 25 47.356538 +03 14 39.95760
 2018-Oct-27 07:13  m  02 25 47.364728 +03 14 41.54036
 2018-Oct-27 07:14  m  02 25 47.372853 +03 14 43.12296
 2018-Oct-27 07:15  m  02 25 47.380911 +03 14 44.70539
 2018-Oct-27 07:16  m  02 25 47.388904 +03 14 46.28765
 2018-Oct-27 07:17  m  02 25 47.396831 +03 14 47.86973
 2018-Oct-27 07:18  m  02 25 47.404693 +03 14 49.45165
 2018-Oct-27 07:19  m  02 25 47.412490 +03 14 51.03340
 2018-Oct-27 07:20  m  02 25 47.420223 +03 14 52.61497
 2018-Oct-27 07:21  m  02 25 47.427891 +03 14 54.19637
 2018-Oct-27 07:22  m  02 25 47.435495 +03 14 55.77760
 2018-Oct-27 07:23  m  02 25 47.443036 +03 14 57.35866
 2018-Oct-27 07:24  m  02 25 47.450512 +03 14 58.93954
 2018-Oct-27 07:25  m  02 25 47.457926 +03 15 00.52026
 2018-Oct-27 07:26  m  02 25 47.465276 +03 15 02.10080
 2018-Oct-27 07:27  m  02 25 47.472564 +03 15 03.68116
 2018-Oct-27 07:28  m  02 25 47.479789 +03 15 05.26136
 2018-Oct-27 07:29  m  02 25 47.486952 +03 15 06.84138
 2018-Oct-27 07:30  m  02 25 47.494054 +03 15 08.42123
 2018-Oct-27 07:31  m  02 25 47.501093 +03 15 10.00090
 2018-Oct-27 07:32  m  02 25 47.508072 +03 15 11.58040
 2018-Oct-27 07:33  m  02 25 47.514989 +03 15 13.15972
 2018-Oct-27 07:34  m  02 25 47.521846 +03 15 14.73887
 2018-Oct-27 07:35  m  02 25 47.528642 +03 15 16.31785
 2018-Oct-27 07:36  m  02 25 47.535378 +03 15 17.89665
 2018-Oct-27 07:37  m  02 25 47.542054 +03 15 19.47527
 2018-Oct-27 07:38  m  02 25 47.548670 +03 15 21.05372
 2018-Oct-27 07:39  m  02 25 47.555227 +03 15 22.63200
 2018-Oct-27 07:40  m  02 25 47.561725 +03 15 24.21009
 2018-Oct-27 07:41  m  02 25 47.568164 +03 15 25.78802
 2018-Oct-27 07:42  m  02 25 47.574545 +03 15 27.36576
 2018-Oct-27 07:43  m  02 25 47.580868 +03 15 28.94333
 2018-Oct-27 07:44  m  02 25 47.587133 +03 15 30.52072
 2018-Oct-27 07:45  m  02 25 47.593340 +03 15 32.09794
 2018-Oct-27 07:46  m  02 25 47.599490 +03 15 33.67498
 2018-Oct-27 07:47  m  02 25 47.605583 +03 15 35.25184
 2018-Oct-27 07:48  m  02 25 47.611620 +03 15 36.82852
 2018-Oct-27 07:49  m  02 25 47.617600 +03 15 38.40502
 2018-Oct-27 07:50  m  02 25 47.623524 +03 15 39.98135
 2018-Oct-27 07:51  m  02 25 47.629392 +03 15 41.55750
 2018-Oct-27 07:52  m  02 25 47.635205 +03 15 43.13347
 2018-Oct-27 07:53  m  02 25 47.640962 +03 15 44.70926
 2018-Oct-27 07:54  m  02 25 47.646665 +03 15 46.28487
 2018-Oct-27 07:55  m  02 25 47.652313 +03 15 47.86031
 2018-Oct-27 07:56  m  02 25 47.657907 +03 15 49.43556
 2018-Oct-27 07:57  m  02 25 47.663447 +03 15 51.01064
 2018-Oct-27 07:58  m  02 25 47.668934 +03 15 52.58553
 2018-Oct-27 07:59  m  02 25 47.674367 +03 15 54.16025
 2018-Oct-27 08:00  m  02 25 47.679747 +03 15 55.73478
 2018-Oct-27 08:01  m  02 25 47.685074 +03 15 57.30914
 2018-Oct-27 08:02  m  02 25 47.690349 +03 15 58.88331
 2018-Oct-27 08:03  m  02 25 47.695572 +03 16 00.45731
 2018-Oct-27 08:04  m  02 25 47.700744 +03 16 02.03112
 2018-Oct-27 08:05  m  02 25 47.705864 +03 16 03.60475
